{"type": "FeatureCollection", "features": [{"type": "Feature", "properties": {"norad_id": 49537, "name": "COSMOS 1408 DEB", "group": "cosmos-1408-debris", "lat": 4.279223666398497, "lon": 105.59631585168883, "alt_km": 127.30638576228012, "timestamp": "2025-12-03T04:52:29.907481+00:00", "meta": {"OBJECT_NAME": "COSMOS 1408 DEB", "OBJECT_ID": "1982-092AA", "EPOCH": "2025-12-01T10:29:21.651360", "MEAN_MOTION": 16.33498888, "ECCENTRICITY": 0.00127731, "INCLINATION": 82.5092, "RA_OF_ASC_NODE": 107.1368, "ARG_OF_PERICENTER": 299.8571, "MEAN_ANOMALY": 60.1455, "EPHEMERIS_TYPE": 0, "CLASSIFICATION_TYPE": "U", "NORAD_CAT_ID": 49537, "ELEMENT_SET_NO": 999, "REV_AT_EPOCH": 22403, "BSTAR": 0.00094222941, "MEAN_MOTION_DOT": 0.05878558, "MEAN_MOTION_DDOT": -1.252052e-06}, "tle": {"line1": "1 49537U 82092AA  25335.43705615  .05878558 -12521-5  94223-3 0  9994", "line2": "2 49537  82.5092 107.1368 0012773 299.8571  60.1455 16.33498888224033"}}, "geometry": {"type": "Point", "coordinates": [105.59631585168883, 4.279223666398497]}}, {"type": "Feature", "properties": {"norad_id": 50032, "name": "COSMOS 1408 DEB", "group": "cosmos-1408-debris", "lat": 17.47076713588013, "lon": 70.63698891047746, "alt_km": 436.9974695933861, "timestamp": "2025-12-03T04:52:29.907502+00:00", "meta": {"OBJECT_NAME": "COSMOS 1408 DEB", "OBJECT_ID": "1982-092RU", "EPOCH": "2025-12-02T16:22:04.175328", "MEAN_MOTION": 15.45532179, "ECCENTRICITY": 0.0014661, "INCLINATION": 82.5653, "RA_OF_ASC_NODE": 68.8153, "ARG_OF_PERICENTER": 248.0467, "MEAN_ANOMALY": 111.9224, "EPHEMERIS_TYPE": 0, "CLASSIFICATION_TYPE": "U", "NORAD_CAT_ID": 50032, "ELEMENT_SET_NO": 999, "REV_AT_EPOCH": 22448, "BSTAR": 0.00014972, "MEAN_MOTION_DOT": 7.253e-05, "MEAN_MOTION_DDOT": 0}, "tle": {"line1": "1 50032U 82092RU  25336.68199277  .00007253  00000+0  14972-3 0  9991", "line2": "2 50032  82.5653  68.8153 0014661 248.0467 111.9224 15.45532179224483"}}, "geometry": {"type": "Point", "coordinates": [70.63698891047746, 17.47076713588013]}}, {"type": "Feature", "properties": {"norad_id": 50058, "name": "COSMOS 1408 DEB", "group": "cosmos-1408-debris", "lat": -39.254879838389435, "lon": 73.2297179008954, "alt_km": 395.83695039371287, "timestamp": "2025-12-03T04:52:29.907516+00:00", "meta": {"OBJECT_NAME": "COSMOS 1408 DEB", "OBJECT_ID": "1982-092SW", "EPOCH": "2025-12-02T18:17:25.833984", "MEAN_MOTION": 15.6319683, "ECCENTRICITY": 0.0016308, "INCLINATION": 82.6133, "RA_OF_ASC_NODE": 79.7764, "ARG_OF_PERICENTER": 134.5458, "MEAN_ANOMALY": 225.7135, "EPHEMERIS_TYPE": 0, "CLASSIFICATION_TYPE": "U", "NORAD_CAT_ID": 50058, "ELEMENT_SET_NO": 999, "REV_AT_EPOCH": 22648, "BSTAR": 0.00041916, "MEAN_MOTION_DOT": 0.00038682, "MEAN_MOTION_DDOT": 0}, "tle": {"line1": "1 50058U 82092SW  25336.76210456  .00038682  00000+0  41916-3 0  9999", "line2": "2 50058  82.6133  79.7764 0016308 134.5458 225.7135 15.63196830226480"}}, "geometry": {"type": "Point", "coordinates": [73.2297179008954, -39.254879838389435]}}, {"type": "Feature", "properties": {"norad_id": 50404, "name": "COSMOS 1408 DEB", "group": "cosmos-1408-debris", "lat": 15.636294834593762, "lon": -133.0212260382206, "alt_km": 629.5051790368798, "timestamp": "2025-12-03T04:52:29.907527+00:00", "meta": {"OBJECT_NAME": "COSMOS 1408 DEB", "OBJECT_ID": "1982-092ADS", "EPOCH": "2025-12-02T17:40:59.460384", "MEAN_MOTION": 15.11668848, "ECCENTRICITY": 0.0176747, "INCLINATION": 82.2069, "RA_OF_ASC_NODE": 225.2577, "ARG_OF_PERICENTER": 233.6124, "MEAN_ANOMALY": 124.8692, "EPHEMERIS_TYPE": 0, "CLASSIFICATION_TYPE": "U", "NORAD_CAT_ID": 50404, "ELEMENT_SET_NO": 999, "REV_AT_EPOCH": 21042, "BSTAR": 0.0033706, "MEAN_MOTION_DOT": 0.00084657, "MEAN_MOTION_DDOT": 0}, "tle": {"line1": "1 50404U 82092ADS 25336.73679931  .00084657  00000+0  33706-2 0  9998", "line2": "2 50404  82.2069 225.2577 0176747 233.6124 124.8692 15.11668848210424"}}, "geometry": {"type": "Point", "coordinates": [-133.0212260382206, 15.636294834593762]}}, {"type": "Feature", "properties": {"norad_id": 50621, "name": "COSMOS 1408 DEB", "group": "cosmos-1408-debris", "lat": -49.8508634088241, "lon": -86.99841249584735, "alt_km": 392.17849659605236, "timestamp": "2025-12-03T04:52:29.907538+00:00", "meta": {"OBJECT_NAME": "COSMOS 1408 DEB", "OBJECT_ID": "1982-092ALR", "EPOCH": "2025-12-02T18:37:38.144352", "MEAN_MOTION": 15.5585774, "ECCENTRICITY": 0.0028874, "INCLINATION": 82.5701, "RA_OF_ASC_NODE": 84.5458, "ARG_OF_PERICENTER": 188.9964, "MEAN_ANOMALY": 171.0777, "EPHEMERIS_TYPE": 0, "CLASSIFICATION_TYPE": "U", "NORAD_CAT_ID": 50621, "ELEMENT_SET_NO": 999, "REV_AT_EPOCH": 22095, "BSTAR": 0.0004929, "MEAN_MOTION_DOT": 0.00034865, "MEAN_MOTION_DDOT": 0}, "tle": {"line1": "1 50621U 82092ALR 25336.77613593  .00034865  00000+0  49290-3 0  9997", "line2": "2 50621  82.5701  84.5458 0028874 188.9964 171.0777 15.55857740220952"}}, "geometry": {"type": "Point", "coordinates": [-86.99841249584735, -49.8508634088241]}}]}